CCSDS_OMM_VERS = 2.0
CREATION_DATE  = 
ORIGINATOR     = 

OBJECT_NAME    = STARLINK-36155
OBJECT_ID      = 2025-286P
CENTER_NAME    = EARTH
REF_FRAME      = TEME
TIME_SYSTEM    = UTC
MEAN_ELEMENT_THEORY = SGP/SGP4

EPOCH          = 2026-01-02T13:02:34.439424
MEAN_MOTION    = 15.49351201
ECCENTRICITY   = .0001499
INCLINATION    = 53.1602
RA_OF_ASC_NODE = 308.2331
ARG_OF_PERICENTER = 101.9404
MEAN_ANOMALY   = 258.1773

EPHEMERIS_TYPE = 0
CLASSIFICATION_TYPE = U
NORAD_CAT_ID   = 66938
ELEMENT_SET_NO = 999
REV_AT_EPOCH   = 525
BSTAR          = .21481E-2
MEAN_MOTION_DOT = .121068E-2
MEAN_MOTION_DDOT = 0

CCSDS_OMM_VERS = 2.0
CREATION_DATE  = 
ORIGINATOR     = 

OBJECT_NAME    = STARLINK-36154
OBJECT_ID      = 2025-286Q
CENTER_NAME    = EARTH
REF_FRAME      = TEME
TIME_SYSTEM    = UTC
MEAN_ELEMENT_THEORY = SGP/SGP4

EPOCH          = 2026-01-02T20:00:01.999872
MEAN_MOTION    = 15.39532536
ECCENTRICITY   = .000107
INCLINATION    = 53.1606
RA_OF_ASC_NODE = 307.0963
ARG_OF_PERICENTER = 85.9230
MEAN_ANOMALY   = 326.5826

EPHEMERIS_TYPE = 0
CLASSIFICATION_TYPE = U
NORAD_CAT_ID   = 66939
ELEMENT_SET_NO = 999
REV_AT_EPOCH   = 538
BSTAR          = .23834E-2
MEAN_MOTION_DOT = .95864E-3
MEAN_MOTION_DDOT = 0

CCSDS_OMM_VERS = 2.0
CREATION_DATE  = 
ORIGINATOR     = 

OBJECT_NAME    = STARLINK-36121
OBJECT_ID      = 2025-286R
CENTER_NAME    = EARTH
REF_FRAME      = TEME
TIME_SYSTEM    = UTC
MEAN_ELEMENT_THEORY = SGP/SGP4

EPOCH          = 2026-01-02T20:00:01.999872
MEAN_MOTION    = 15.39556780
ECCENTRICITY   = .0001173
INCLINATION    = 53.1604
RA_OF_ASC_NODE = 307.0449
ARG_OF_PERICENTER = 93.5881
MEAN_ANOMALY   = 344.6634

EPHEMERIS_TYPE = 0
CLASSIFICATION_TYPE = U
NORAD_CAT_ID   = 66940
ELEMENT_SET_NO = 999
REV_AT_EPOCH   = 538
BSTAR          = .18979E-2
MEAN_MOTION_DOT = .76117E-3
MEAN_MOTION_DDOT = 0

CCSDS_OMM_VERS = 2.0
CREATION_DATE  = 
ORIGINATOR     = 

OBJECT_NAME    = STARLINK-36088
OBJECT_ID      = 2025-286S
CENTER_NAME    = EARTH
REF_FRAME      = TEME
TIME_SYSTEM    = UTC
MEAN_ELEMENT_THEORY = SGP/SGP4

EPOCH          = 2026-01-02T02:02:07.596960
MEAN_MOTION    = 15.49341085
ECCENTRICITY   = .00009494
INCLINATION    = 53.1600
RA_OF_ASC_NODE = 310.3456
ARG_OF_PERICENTER = 68.0606
MEAN_ANOMALY   = 292.0504

EPHEMERIS_TYPE = 0
CLASSIFICATION_TYPE = U
NORAD_CAT_ID   = 66941
ELEMENT_SET_NO = 999
REV_AT_EPOCH   = 518
BSTAR          = .247057E-2
MEAN_MOTION_DOT = .139594E-2
MEAN_MOTION_DDOT = 0

CCSDS_OMM_VERS = 2.0
CREATION_DATE  = 
ORIGINATOR     = 

OBJECT_NAME    = STARLINK-36100
OBJECT_ID      = 2025-286T
CENTER_NAME    = EARTH
REF_FRAME      = TEME
TIME_SYSTEM    = UTC
MEAN_ELEMENT_THEORY = SGP/SGP4

EPOCH          = 2026-01-02T20:00:01.999872
MEAN_MOTION    = 15.39564890
ECCENTRICITY   = .0001346
INCLINATION    = 53.1597
RA_OF_ASC_NODE = 306.9927
ARG_OF_PERICENTER = 106.2391
MEAN_ANOMALY   = 357.7552

EPHEMERIS_TYPE = 0
CLASSIFICATION_TYPE = U
NORAD_CAT_ID   = 66942
ELEMENT_SET_NO = 999
REV_AT_EPOCH   = 531
BSTAR          = .1935E-2
MEAN_MOTION_DOT = .77648E-3
MEAN_MOTION_DDOT = 0

CCSDS_OMM_VERS = 2.0
CREATION_DATE  = 
ORIGINATOR     = 

OBJECT_NAME    = STARLINK-36109
OBJECT_ID      = 2025-286U
CENTER_NAME    = EARTH
REF_FRAME      = TEME
TIME_SYSTEM    = UTC
MEAN_ELEMENT_THEORY = SGP/SGP4

EPOCH          = 2026-01-02T20:00:01.999872
MEAN_MOTION    = 15.39877434
ECCENTRICITY   = .0000692
INCLINATION    = 53.1593
RA_OF_ASC_NODE = 306.8904
ARG_OF_PERICENTER = 93.1974
MEAN_ANOMALY   = 62.1731

EPHEMERIS_TYPE = 0
CLASSIFICATION_TYPE = U
NORAD_CAT_ID   = 66943
ELEMENT_SET_NO = 999
REV_AT_EPOCH   = 531
BSTAR          = -.11287E-1
MEAN_MOTION_DOT = -.430902E-2
MEAN_MOTION_DDOT = 0

CCSDS_OMM_VERS = 2.0
CREATION_DATE  = 
ORIGINATOR     = 

OBJECT_NAME    = STARLINK-36112
OBJECT_ID      = 2025-286V
CENTER_NAME    = EARTH
REF_FRAME      = TEME
TIME_SYSTEM    = UTC
MEAN_ELEMENT_THEORY = SGP/SGP4

EPOCH          = 2026-01-02T12:59:48.268032
MEAN_MOTION    = 15.48570969
ECCENTRICITY   = .0003109
INCLINATION    = 53.1604
RA_OF_ASC_NODE = 308.2193
ARG_OF_PERICENTER = 61.1555
MEAN_ANOMALY   = 298.9765

EPHEMERIS_TYPE = 0
CLASSIFICATION_TYPE = U
NORAD_CAT_ID   = 66944
ELEMENT_SET_NO = 999
REV_AT_EPOCH   = 525
BSTAR          = -.4497E-2
MEAN_MOTION_DOT = -.236974E-2
MEAN_MOTION_DDOT = 0

CCSDS_OMM_VERS = 2.0
CREATION_DATE  = 
ORIGINATOR     = 

OBJECT_NAME    = STARLINK-36110
OBJECT_ID      = 2025-286W
CENTER_NAME    = EARTH
REF_FRAME      = TEME
TIME_SYSTEM    = UTC
MEAN_ELEMENT_THEORY = SGP/SGP4

EPOCH          = 2026-01-02T20:00:01.999872
MEAN_MOTION    = 15.43150136
ECCENTRICITY   = .0001477
INCLINATION    = 53.1595
RA_OF_ASC_NODE = 306.8474
ARG_OF_PERICENTER = 95.5963
MEAN_ANOMALY   = 80.6700

EPHEMERIS_TYPE = 0
CLASSIFICATION_TYPE = U
NORAD_CAT_ID   = 66945
ELEMENT_SET_NO = 999
REV_AT_EPOCH   = 538
BSTAR          = -.50972E-1
MEAN_MOTION_DOT = -.203963E-1
MEAN_MOTION_DDOT = 0

CCSDS_OMM_VERS = 2.0
CREATION_DATE  = 
ORIGINATOR     = 

OBJECT_NAME    = STARLINK-36115
OBJECT_ID      = 2025-286X
CENTER_NAME    = EARTH
REF_FRAME      = TEME
TIME_SYSTEM    = UTC
MEAN_ELEMENT_THEORY = SGP/SGP4

EPOCH          = 2026-01-02T12:58:37.082208
MEAN_MOTION    = 15.49354708
ECCENTRICITY   = .0001374
INCLINATION    = 53.1594
RA_OF_ASC_NODE = 308.2150
ARG_OF_PERICENTER = 99.4933
MEAN_ANOMALY   = 260.6231

EPHEMERIS_TYPE = 0
CLASSIFICATION_TYPE = U
NORAD_CAT_ID   = 66946
ELEMENT_SET_NO = 999
REV_AT_EPOCH   = 525
BSTAR          = .20542E-2
MEAN_MOTION_DOT = .11569E-2
MEAN_MOTION_DDOT = 0

CCSDS_OMM_VERS = 2.0
CREATION_DATE  = 
ORIGINATOR     = 

OBJECT_NAME    = STARLINK-36089
OBJECT_ID      = 2025-286Y
CENTER_NAME    = EARTH
REF_FRAME      = TEME
TIME_SYSTEM    = UTC
MEAN_ELEMENT_THEORY = SGP/SGP4

EPOCH          = 2026-01-02T05:13:10.125120
MEAN_MOTION    = 15.49358429
ECCENTRICITY   = .0001171
INCLINATION    = 53.1585
RA_OF_ASC_NODE = 309.7512
ARG_OF_PERICENTER = 77.5319
MEAN_ANOMALY   = 282.5821

EPHEMERIS_TYPE = 0
CLASSIFICATION_TYPE = U
NORAD_CAT_ID   = 66947
ELEMENT_SET_NO = 999
REV_AT_EPOCH   = 520
BSTAR          = .21713E-2
MEAN_MOTION_DOT = .122432E-2
MEAN_MOTION_DDOT = 0

CCSDS_OMM_VERS = 2.0
CREATION_DATE  = 
ORIGINATOR     = 

OBJECT_NAME    = STARLINK-36116
OBJECT_ID      = 2025-286Z
CENTER_NAME    = EARTH
REF_FRAME      = TEME
TIME_SYSTEM    = UTC
MEAN_ELEMENT_THEORY = SGP/SGP4

EPOCH          = 2026-01-02T19:09:41.385024
MEAN_MOTION    = 15.49341670
ECCENTRICITY   = .0001404
INCLINATION    = 53.1599
RA_OF_ASC_NODE = 306.9790
ARG_OF_PERICENTER = 113.3563
MEAN_ANOMALY   = 246.7593

EPHEMERIS_TYPE = 0
CLASSIFICATION_TYPE = U
NORAD_CAT_ID   = 66948
ELEMENT_SET_NO = 999
REV_AT_EPOCH   = 529
BSTAR          = .23287E-2
MEAN_MOTION_DOT = .131417E-2
MEAN_MOTION_DDOT = 0

CCSDS_OMM_VERS = 2.0
CREATION_DATE  = 
ORIGINATOR     = 

OBJECT_NAME    = STARLINK-36096
OBJECT_ID      = 2025-286AA
CENTER_NAME    = EARTH
REF_FRAME      = TEME
TIME_SYSTEM    = UTC
MEAN_ELEMENT_THEORY = SGP/SGP4

EPOCH          = 2026-01-02T20:00:01.999872
MEAN_MOTION    = 15.39559243
ECCENTRICITY   = .0000964
INCLINATION    = 53.1594
RA_OF_ASC_NODE = 306.9398
ARG_OF_PERICENTER = 98.9670
MEAN_ANOMALY   = 30.7890

EPHEMERIS_TYPE = 0
CLASSIFICATION_TYPE = U
NORAD_CAT_ID   = 66949
ELEMENT_SET_NO = 999
REV_AT_EPOCH   = 538
BSTAR          = .19083E-2
MEAN_MOTION_DOT = .76546E-3
MEAN_MOTION_DDOT = 0

