STARLINK-36155          
1 66938U 25286P   26002.54345416  .00121068  00000+0  21481-2 0  9992
2 66938  53.1602 308.2331 0001499 101.9404 258.1773 15.49351201  5259
STARLINK-36154          
1 66939U 25286Q   26002.83335648  .00095864  00000+0  23834-2 0  9999
2 66939  53.1606 307.0963 0001070  85.9230 326.5826 15.39532536  5389
STARLINK-36121          
1 66940U 25286R   26002.83335648  .00076117  00000+0  18979-2 0  9995
2 66940  53.1604 307.0449 0001173  93.5881 344.6634 15.39556780  5384
STARLINK-36088          
1 66941U 25286S   26002.08481015  .00139594  00000+0  24706-2 0  9997
2 66941  53.1600 310.3456 0000949  68.0606 292.0504 15.49341085  5189
STARLINK-36100          
1 66942U 25286T   26002.83335648  .00077648  00000+0  19350-2 0  9991
2 66942  53.1597 306.9927 0001346 106.2391 357.7552 15.39564890  5314
STARLINK-36109          
1 66943U 25286U   26002.83335648 -.00430902  00000+0 -11287-1 0  9990
2 66943  53.1593 306.8904 0000692  93.1974  62.1731 15.39877434  5316
STARLINK-36112          
1 66944U 25286V   26002.54153088 -.00236974  00000+0 -44970-2 0  9994
2 66944  53.1604 308.2193 0003109  61.1555 298.9765 15.48570969  5254
STARLINK-36110          
1 66945U 25286W   26002.83335648 -.02039630  00000+0 -50972-1 0  9991
2 66945  53.1595 306.8474 0001477  95.5963  80.6700 15.43150136  5384
STARLINK-36115          
1 66946U 25286X   26002.54070697  .00115690  00000+0  20542-2 0  9998
2 66946  53.1594 308.2150 0001374  99.4933 260.6231 15.49354708  5259
STARLINK-36089          
1 66947U 25286Y   26002.21747830  .00122432  00000+0  21713-2 0  9996
2 66947  53.1585 309.7512 0001171  77.5319 282.5821 15.49358429  5205
STARLINK-36116          
1 66948U 25286Z   26002.79839566  .00131417  00000+0  23287-2 0  9999
2 66948  53.1599 306.9790 0001404 113.3563 246.7593 15.49341670  5294
STARLINK-36096          
1 66949U 25286AA  26002.83335648  .00076546  00000+0  19083-2 0  9997
2 66949  53.1594 306.9398 0000964  98.9670  30.7890 15.39559243  5388
